NORAD_CAT_ID,OBJECT_NAME,OBJECT_TYPE,EPOCH,MEAN_MOTION,ECCENTRICITY,INCLINATION,RA_OF_ASC_NODE,ARG_OF_PERICENTER,MEAN_ANOMALY,BSTAR,MEAN_MOTION_DOT,MEAN_MOTION_DDOT,TLE_LINE0,TLE_LINE1,TLE_LINE2,SEMIMAJOR_AXIS,PERIOD,APOGEE,PERIGEE,DECAYED
52274.0,STARLINK-3790,PAYLOAD,2024-04-05 04:56:01,15.08845539,0.0001368,53.2183,27.1838,95.9182,264.1966,0.00015148,2.124e-05,0.0,0 STARLINK-3790,1 52274U 22041P   24096.20557459  .00002124  00000-0  15148-3 0  9998,2 52274  53.2183  27.1838 0001368  95.9182 264.1966 15.08845539109388,6917.863,95.437,540.675,538.782,0.0
52274.0,STARLINK-3790,PAYLOAD,2024-04-05 12:52:57,15.08848117,0.0001377,53.2184,25.6971,94.2806,265.8344,0.00015546,2.188e-05,0.0,0 STARLINK-3790,1 52274U 22041P   24096.53677263  .00002188  00000-0  15546-3 0  9992,2 52274  53.2184  25.6971 0001377  94.2806 265.8344 15.08848117108219,6917.856,95.437,540.673,538.768,0.0
52274.0,STARLINK-3790,PAYLOAD,2024-04-06 04:46:48,15.08852884,0.0001504,53.2186,22.7223,96.4757,263.6407,0.00039875,6.066e-05,0.0,0 STARLINK-3790,1 52274U 22041P   24097.19917479  .00006066  00000-0  39875-3 0  9991,2 52274  53.2186  22.7223 0001504  96.4757 263.6407 15.08852884108313,6917.841,95.437,540.746,538.666,0.0
52274.0,STARLINK-3790,PAYLOAD,2024-04-06 22:16:02,15.0885068,0.0001643,53.2188,19.4491,104.0492,256.0683,8.627e-05,1.086e-05,0.0,0 STARLINK-3790,1 52274U 22041P   24097.92781158  .00001086  00000-0  86270-4 0  9994,2 52274  53.2188  19.4491 0001643 104.0492 256.0683 15.08850680108427,6917.848,95.437,540.849,538.576,0.0
52274.0,STARLINK-3790,PAYLOAD,2024-04-07 04:37:35,15.08852922,0.0001603,53.219,18.2601,102.7498,257.3673,4.968e-05,5.03e-06,0.0,0 STARLINK-3790,1 52274U 22041P   24098.19276813  .00000503  00000-0  49680-4 0  9998,2 52274  53.2190  18.2601 0001603 102.7498 257.3673 15.08852922108465,6917.841,95.437,540.815,538.597,0.0
52274.0,STARLINK-3790,PAYLOAD,2024-04-07 22:06:50,15.08841329,0.0001496,53.2196,14.9897,93.8515,266.2648,-4.9106e-05,-1.069e-05,0.0,0 STARLINK-3790,1 52274U 22041P   24098.92141613 -.00001069  00000-0 -49106-4 0  9991,2 52274  53.2196  14.9897 0001496  93.8515 266.2648 15.08841329108573,6917.876,95.437,540.776,538.706,0.0
52274.0,STARLINK-3790,PAYLOAD,2024-04-08 01:17:36,15.08846359,0.0001404,53.2193,14.396,95.5095,264.6057,-8.4217e-06,-4.22e-06,0.0,0 STARLINK-3790,1 52274U 22041P   24099.05389091 -.00000422  00000-0 -84217-5 0  9995,2 52274  53.2193  14.3960 0001404  95.5095 264.6057 15.08846359109818,6917.861,95.437,540.697,538.755,0.0
52274.0,STARLINK-3790,PAYLOAD,2024-04-08 10:49:54,15.08848275,0.0001381,53.2188,12.6107,90.4965,269.6185,-1.0402e-05,-4.54e-06,0.0,0 STARLINK-3790,1 52274U 22041P   24099.45132800 -.00000454  00000-0 -10402-4 0  9992,2 52274  53.2188  12.6107 0001381  90.4965 269.6185 15.08848275108657,6917.855,95.437,540.675,538.765,0.0
52274.0,STARLINK-3790,PAYLOAD,2024-04-09 01:08:23,15.08844271,0.0001464,53.2197,9.9397,97.2348,262.8811,9.3159e-06,-1.4e-06,0.0,0 STARLINK-3790,1 52274U 22041P   24100.04749131 -.00000140  00000-0  93159-5 0  9993,2 52274  53.2197   9.9397 0001464  97.2348 262.8811 15.08844271108742,6917.867,95.437,540.745,538.72,0.0
52274.0,STARLINK-3790,PAYLOAD,2024-04-09 10:40:42,15.08843209,0.0001462,53.22,8.1554,96.217,263.8989,-3.5281e-06,-3.44e-06,0.0,0 STARLINK-3790,1 52274U 22041P   24100.44493182 -.00000344  00000-0 -35281-5 0  9998,2 52274  53.2200   8.1554 0001462  96.2170 263.8989 15.08843209110024,6917.871,95.437,540.747,538.724,0.0
52274.0,STARLINK-3790,PAYLOAD,2024-04-09 18:37:38,15.08828578,0.0001579,53.2212,6.6692,104.4674,255.6494,0.00015638,2.201e-05,0.0,0 STARLINK-3790,1 52274U 22041P   24100.77613758  .00002201  00000-0  15638-3 0  9991,2 52274  53.2212   6.6692 0001579 104.4674 255.6494 15.08828578110070,6917.915,95.438,540.873,538.688,0.0
52274.0,STARLINK-3790,PAYLOAD,2024-04-10 04:09:56,15.08840732,0.0001437,53.2199,4.8834,92.5023,267.6134,4.5246e-05,4.32e-06,0.0,0 STARLINK-3790,1 52274U 22041P   24101.17357453  .00000432  00000-0  45246-4 0  9996,2 52274  53.2199   4.8834 0001437  92.5023 267.6134 15.08840732110137,6917.878,95.438,540.737,538.749,0.0
52274.0,STARLINK-3790,PAYLOAD,2024-04-10 10:31:29,15.08838714,0.0001438,53.2194,3.6928,91.0883,269.0274,3.6369e-05,2.91e-06,0.0,0 STARLINK-3790,1 52274U 22041P   24101.43853632  .00000291  00000-0  36369-4 0  9994,2 52274  53.2194   3.6928 0001438  91.0883 269.0274 15.08838714108957,6917.884,95.438,540.744,538.755,0.0
52274.0,STARLINK-3790,PAYLOAD,2024-04-10 21:39:11,15.08839467,0.0001485,53.2202,1.6109,89.9199,270.1963,9.3134e-05,1.195e-05,0.0,0 STARLINK-3790,1 52274U 22041P   24101.90221526  .00001195  00000-0  93134-4 0  9994,2 52274  53.2202   1.6109 0001485  89.9199 270.1963 15.08839467109027,6917.882,95.438,540.774,538.72,0.0
52274.0,STARLINK-3790,PAYLOAD,2024-04-11 10:22:16,15.08844815,0.0001387,53.2192,359.2306,82.1311,277.9839,3.8268e-05,3.21e-06,0.0,0 STARLINK-3790,1 52274U 22041P   24102.43213298  .00000321  00000-0  38268-4 0  9997,2 52274  53.2192 359.2306 0001387  82.1311 277.9839 15.08844815110323,6917.866,95.437,540.69,538.771,0.0
52274.0,STARLINK-3790,PAYLOAD,2024-04-11 21:29:58,15.08836764,0.0001471,53.2194,357.149,82.4454,277.6705,0.00011576,1.555e-05,0.0,0 STARLINK-3790,1 52274U 22041P   24102.89581756  .00001555  00000-0  11576-3 0  9996,2 52274  53.2194 357.1490 0001471  82.4454 277.6705 15.08836764110391,6917.89,95.438,540.773,538.738,0.0
52274.0,STARLINK-3790,PAYLOAD,2024-04-12 02:16:07,15.08844009,0.0001508,53.2196,356.2578,83.9049,276.2115,9.042e-05,1.151e-05,0.0,0 STARLINK-3790,1 52274U 22041P   24103.09453312  .00001151  00000-0  90420-4 0  9993,2 52274  53.2196 356.2578 0001508  83.9049 276.2115 15.08844009110422,6917.868,95.437,540.776,538.69,0.0
52274.0,STARLINK-3790,PAYLOAD,2024-04-13 02:06:54,15.08848957,0.0001384,53.2189,351.7958,94.7767,265.3383,3.7779e-05,3.14e-06,0.0,0 STARLINK-3790,1 52274U 22041P   24104.08812896  .00000314  00000-0  37779-4 0  9997,2 52274  53.2189 351.7958 0001384  94.7767 265.3383 15.08848957109357,6917.853,95.437,540.675,538.761,0.0
52274.0,STARLINK-3790,PAYLOAD,2024-04-13 21:11:32,15.08837935,0.0001971,53.2198,348.2276,120.0954,240.0234,3.3369e-05,2.43e-06,0.0,0 STARLINK-3790,1 52274U 22041P   24104.88301362  .00000243  00000-0  33369-4 0  9998,2 52274  53.2198 348.2276 0001971 120.0954 240.0234 15.08837935110692,6917.887,95.438,541.115,538.388,0.0
52274.0,STARLINK-3790,PAYLOAD,2024-04-14 21:02:20,15.08789895,0.0001886,53.2189,343.7634,108.8615,251.2582,0.00088983,0.00013883,0.0,0 STARLINK-3790,1 52274U 22041P   24105.87662193  .00013883  00000-0  88983-3 0  9995,2 52274  53.2189 343.7634 0001886 108.8615 251.2582 15.08789895110841,6918.034,95.441,541.203,538.594,0.0
52274.0,STARLINK-3790,PAYLOAD,2024-04-14 22:37:42,15.08854241,0.0001477,53.219,343.4681,102.5257,257.59,-1.2128e-05,-4.81e-06,0.0,0 STARLINK-3790,1 52274U 22041P   24105.94285016 -.00000481  00000-0 -12128-4 0  9999,2 52274  53.2190 343.4681 0001477 102.5257 257.5900 15.08854241109637,6917.837,95.437,540.724,538.68,0.0
52274.0,STARLINK-3790,PAYLOAD,2024-04-15 01:48:29,15.08820817,0.0001781,53.2181,342.8732,114.8805,245.2372,0.0008691,0.00013564,0.0,0 STARLINK-3790,1 52274U 22041P   24106.07534615  .00013564  00000-0  86910-3 0  9999,2 52274  53.2181 342.8732 0001781 114.8805 245.2372 15.08820817110877,6917.939,95.439,541.036,538.572,0.0
52274.0,STARLINK-3790,PAYLOAD,2024-04-15 20:53:06,15.08839137,0.0001611,53.2174,339.3036,124.7044,235.41,8.0395e-05,9.92e-06,0.0,0 STARLINK-3790,1 52274U 22041P   24106.87021670  .00000992  00000-0  80395-4 0  9992,2 52274  53.2174 339.3036 0001611 124.7044 235.4100 15.08839137110992,6917.883,95.438,540.862,538.634,0.0
52274.0,STARLINK-3790,PAYLOAD,2024-04-16 08:00:48,15.08843315,0.0001208,53.218,337.2254,82.7974,277.3155,0.00014192,1.972e-05,0.0,0 STARLINK-3790,1 52274U 22041P   24107.33389713  .00001972  00000-0  14192-3 0  9999,2 52274  53.2180 337.2254 0001208  82.7974 277.3155 15.08843315109845,6917.87,95.437,540.571,538.9,0.0
52274.0,STARLINK-3790,PAYLOAD,2024-04-16 20:43:53,15.08853237,0.0001138,53.2165,334.8459,80.6339,279.4782,0.00024418,3.602e-05,0.0,0 STARLINK-3790,1 52274U 22041P   24107.86380970  .00003602  00000-0  24418-3 0  9997,2 52274  53.2165 334.8459 0001138  80.6339 279.4782 15.08853237111141,6917.84,95.437,540.492,538.918,0.0
52274.0,STARLINK-3790,PAYLOAD,2024-04-16 22:19:15,15.08865961,0.0001212,53.2175,334.5475,96.4903,263.6227,0.00052596,8.099e-05,0.0,0 STARLINK-3790,1 52274U 22041P   24107.93004521  .00008099  00000-0  52596-3 0  9993,2 52274  53.2175 334.5475 0001212  96.4903 263.6227 15.08865961109932,6917.801,95.436,540.504,538.828,0.0
52274.0,STARLINK-3790,PAYLOAD,2024-04-17 01:30:01,15.08868612,0.0001186,53.2176,333.9541,90.8034,269.3094,0.00051681,7.953e-05,0.0,0 STARLINK-3790,1 52274U 22041P   24108.06252254  .00007953  00000-0  51681-3 0  9998,2 52274  53.2176 333.9541 0001186  90.8034 269.3094 15.08868612111173,6917.793,95.436,540.478,538.837,0.0
52274.0,STARLINK-3790,PAYLOAD,2024-04-17 20:34:41,15.088306,0.000141,53.2167,330.3856,79.1228,280.9923,-9.7445e-05,-1.838e-05,0.0,0 STARLINK-3790,1 52274U 22041P   24108.85742358 -.00001838  00000-0 -97445-4 0  9991,2 52274  53.2167 330.3856 0001410  79.1228 280.9923 15.08830600111297,6917.909,95.438,540.75,538.799,0.0
52274.0,STARLINK-3790,PAYLOAD,2024-04-18 01:20:50,15.08836629,0.0001464,53.2177,329.4947,86.0526,274.0633,-3.1341e-06,-3.38e-06,0.0,0 STARLINK-3790,1 52274U 22041P   24109.05613932 -.00000338  00000-0 -31341-5 0  9997,2 52274  53.2177 329.4947 0001464  86.0526 274.0633 15.08836629111328,6917.891,95.438,540.768,538.743,0.0
52274.0,STARLINK-3790,PAYLOAD,2024-04-18 22:00:51,15.08846663,0.0001585,53.2175,325.6309,82.7338,277.3834,0.00048081,7.374e-05,0.0,0 STARLINK-3790,1 52274U 22041P   24109.91726161  .00007374  00000-0  48081-3 0  9993,2 52274  53.2175 325.6309 0001585  82.7338 277.3834 15.08846663110231,6917.86,95.437,540.822,538.629,0.0
